{
    "week": 294,
    "satellites": [
        {
            "Name": "GSAT0101 (GALILEO-PFM)",
            "Line1": "1 37846U 11060A   24329.86091542 -.00000085  00000+0  00000+0 0  9993",
            "Line2": "2 37846  57.1204 357.1880 0002225 306.2715  53.7601  1.70475941 81544",
            "SatelliteNumber": "37846",
            "Classification": "U",
            "LaunchYear": "11",
            "LaunchNumber": "060",
            "PieceOfLaunch": "A",
            "EpochYear": "24",
            "EpochDay": 329.86091542,
            "FirstDerivativeMeanMotion": -8.5e-07,
            "SecondDerivativeMeanMotion": "00000+0",
            "BSTAR": "00000+0",
            "SetNumber": "999",
            "Inclination": 57.1204,
            "RAAN": 357.188,
            "Eccentricity": 0.0002225,
            "ArgumentOfPerigee": 306.2715,
            "MeanAnomaly": 53.7601,
            "MeanMotion": 1.70475941,
            "RevolutionNumber": "8154"
        },
        {
            "Name": "GSAT0102 (GALILEO-FM2)",
            "Line1": "1 37847U 11060B   24329.28910988 -.00000087  00000+0  00000+0 0  9996",
            "Line2": "2 37847  57.1213 357.2037 0004205 301.1182 113.3752  1.70475428 81418",
            "SatelliteNumber": "37847",
            "Classification": "U",
            "LaunchYear": "11",
            "LaunchNumber": "060",
            "PieceOfLaunch": "B",
            "EpochYear": "24",
            "EpochDay": 329.28910988,
            "FirstDerivativeMeanMotion": -8.7e-07,
            "SecondDerivativeMeanMotion": "00000+0",
            "BSTAR": "00000+0",
            "SetNumber": "999",
            "Inclination": 57.1213,
            "RAAN": 357.2037,
            "Eccentricity": 0.0004205,
            "ArgumentOfPerigee": 301.1182,
            "MeanAnomaly": 113.3752,
            "MeanMotion": 1.70475428,
            "RevolutionNumber": "8141"
        },
        {
            "Name": "GSAT0103 (GALILEO-FM3)",
            "Line1": "1 38857U 12055A   24331.07347724  .00000054  00000+0  00000+0 0  9998",
            "Line2": "2 38857  55.4840 117.1550 0002357 249.7486 110.2083  1.70473572 75469",
            "SatelliteNumber": "38857",
            "Classification": "U",
            "LaunchYear": "12",
            "LaunchNumber": "055",
            "PieceOfLaunch": "A",
            "EpochYear": "24",
            "EpochDay": 331.07347724,
            "FirstDerivativeMeanMotion": 5.4e-07,
            "SecondDerivativeMeanMotion": "00000+0",
            "BSTAR": "00000+0",
            "SetNumber": "999",
            "Inclination": 55.484,
            "RAAN": 117.155,
            "Eccentricity": 0.0002357,
            "ArgumentOfPerigee": 249.7486,
            "MeanAnomaly": 110.2083,
            "MeanMotion": 1.70473572,
            "RevolutionNumber": "7546"
        },
        {
            "Name": "GSAT0201 (GALILEO 5)",
            "Line1": "1 40128U 14050A   24329.70674612 -.00000090  00000+0  00000+0 0  9996",
            "Line2": "2 40128  49.4935 296.5993 1615394 157.4923 210.4985  1.85519693 67755",
            "SatelliteNumber": "40128",
            "Classification": "U",
            "LaunchYear": "14",
            "LaunchNumber": "050",
            "PieceOfLaunch": "A",
            "EpochYear": "24",
            "EpochDay": 329.70674612,
            "FirstDerivativeMeanMotion": -9e-07,
            "SecondDerivativeMeanMotion": "00000+0",
            "BSTAR": "00000+0",
            "SetNumber": "999",
            "Inclination": 49.4935,
            "RAAN": 296.5993,
            "Eccentricity": 0.1615394,
            "ArgumentOfPerigee": 157.4923,
            "MeanAnomaly": 210.4985,
            "MeanMotion": 1.85519693,
            "RevolutionNumber": "6775"
        },
        {
            "Name": "GSAT0202 (GALILEO 6)",
            "Line1": "1 40129U 14050B   24328.34747109 -.00000083  00000+0  00000+0 0  9990",
            "Line2": "2 40129  49.5108 295.7332 1614741 158.2322 209.5122  1.85520434 69898",
            "SatelliteNumber": "40129",
            "Classification": "U",
            "LaunchYear": "14",
            "LaunchNumber": "050",
            "PieceOfLaunch": "B",
            "EpochYear": "24",
            "EpochDay": 328.34747109,
            "FirstDerivativeMeanMotion": -8.3e-07,
            "SecondDerivativeMeanMotion": "00000+0",
            "BSTAR": "00000+0",
            "SetNumber": "999",
            "Inclination": 49.5108,
            "RAAN": 295.7332,
            "Eccentricity": 0.1614741,
            "ArgumentOfPerigee": 158.2322,
            "MeanAnomaly": 209.5122,
            "MeanMotion": 1.85520434,
            "RevolutionNumber": "6989"
        },
        {
            "Name": "GSAT0203 (GALILEO 7)",
            "Line1": "1 40544U 15017A   24331.39950270 -.00000080  00000+0  00000+0 0  9996",
            "Line2": "2 40544  56.9150 357.0582 0006061 261.5535  98.4321  1.70476208 60182",
            "SatelliteNumber": "40544",
            "Classification": "U",
            "LaunchYear": "15",
            "LaunchNumber": "017",
            "PieceOfLaunch": "A",
            "EpochYear": "24",
            "EpochDay": 331.3995027,
            "FirstDerivativeMeanMotion": -8e-07,
            "SecondDerivativeMeanMotion": "00000+0",
            "BSTAR": "00000+0",
            "SetNumber": "999",
            "Inclination": 56.915,
            "RAAN": 357.0582,
            "Eccentricity": 0.0006061,
            "ArgumentOfPerigee": 261.5535,
            "MeanAnomaly": 98.4321,
            "MeanMotion": 1.70476208,
            "RevolutionNumber": "6018"
        },
        {
            "Name": "GSAT0204 (GALILEO 8)",
            "Line1": "1 40545U 15017B   24330.48097549 -.00000083  00000+0  00000+0 0  9990",
            "Line2": "2 40545  56.9215 357.0994 0005850 251.1400 108.8494  1.70475839 22558",
            "SatelliteNumber": "40545",
            "Classification": "U",
            "LaunchYear": "15",
            "LaunchNumber": "017",
            "PieceOfLaunch": "B",
            "EpochYear": "24",
            "EpochDay": 330.48097549,
            "FirstDerivativeMeanMotion": -8.3e-07,
            "SecondDerivativeMeanMotion": "00000+0",
            "BSTAR": "00000+0",
            "SetNumber": "999",
            "Inclination": 56.9215,
            "RAAN": 357.0994,
            "Eccentricity": 0.000585,
            "ArgumentOfPerigee": 251.14,
            "MeanAnomaly": 108.8494,
            "MeanMotion": 1.70475839,
            "RevolutionNumber": "2255"
        },
        {
            "Name": "GSAT0205 (GALILEO 9)",
            "Line1": "1 40889U 15045A   24330.24937976 -.00000019  00000+0  00000+0 0  9992",
            "Line2": "2 40889  55.1508 237.3219 0004734  17.3728 342.6853  1.70473026 57315",
            "SatelliteNumber": "40889",
            "Classification": "U",
            "LaunchYear": "15",
            "LaunchNumber": "045",
            "PieceOfLaunch": "A",
            "EpochYear": "24",
            "EpochDay": 330.24937976,
            "FirstDerivativeMeanMotion": -1.9e-07,
            "SecondDerivativeMeanMotion": "00000+0",
            "BSTAR": "00000+0",
            "SetNumber": "999",
            "Inclination": 55.1508,
            "RAAN": 237.3219,
            "Eccentricity": 0.0004734,
            "ArgumentOfPerigee": 17.3728,
            "MeanAnomaly": 342.6853,
            "MeanMotion": 1.70473026,
            "RevolutionNumber": "5731"
        },
        {
            "Name": "GSAT0206 (GALILEO 10)",
            "Line1": "1 40890U 15045B   24326.36392849 -.00000024  00000+0  00000+0 0  9992",
            "Line2": "2 40890  55.1487 237.4249 0003164   7.9867 352.0637  1.70472981 57271",
            "SatelliteNumber": "40890",
            "Classification": "U",
            "LaunchYear": "15",
            "LaunchNumber": "045",
            "PieceOfLaunch": "B",
            "EpochYear": "24",
            "EpochDay": 326.36392849,
            "FirstDerivativeMeanMotion": -2.4e-07,
            "SecondDerivativeMeanMotion": "00000+0",
            "BSTAR": "00000+0",
            "SetNumber": "999",
            "Inclination": 55.1487,
            "RAAN": 237.4249,
            "Eccentricity": 0.0003164,
            "ArgumentOfPerigee": 7.9867,
            "MeanAnomaly": 352.0637,
            "MeanMotion": 1.70472981,
            "RevolutionNumber": "5727"
        },
        {
            "Name": "GSAT0209 (GALILEO 12)",
            "Line1": "1 41174U 15079A   24330.63930615  .00000054  00000+0  00000+0 0  9991",
            "Line2": "2 41174  55.5049 116.8775 0001876 348.3714  11.6073  1.70474529 55663",
            "SatelliteNumber": "41174",
            "Classification": "U",
            "LaunchYear": "15",
            "LaunchNumber": "079",
            "PieceOfLaunch": "A",
            "EpochYear": "24",
            "EpochDay": 330.63930615,
            "FirstDerivativeMeanMotion": 5.4e-07,
            "SecondDerivativeMeanMotion": "00000+0",
            "BSTAR": "00000+0",
            "SetNumber": "999",
            "Inclination": 55.5049,
            "RAAN": 116.8775,
            "Eccentricity": 0.0001876,
            "ArgumentOfPerigee": 348.3714,
            "MeanAnomaly": 11.6073,
            "MeanMotion": 1.70474529,
            "RevolutionNumber": "5566"
        }
    ]
}